[{"OBJECT_NAME":"HERMES-2","OBJECT_ID":"2025-052AK","EPOCH":"2026-03-09T22:17:00.130272","MEAN_MOTION":15.28021069,"ECCENTRICITY":0.00063399,"INCLINATION":97.4004,"RA_OF_ASC_NODE":324.4926,"ARG_OF_PERICENTER":99.416,"MEAN_ANOMALY":260.7796,"EPHEMERIS_TYPE":0,"CLASSIFICATION_TYPE":"U","NORAD_CAT_ID":63243,"ELEMENT_SET_NO":999,"REV_AT_EPOCH":5485,"BSTAR":0.00034839454,"MEAN_MOTION_DOT":9.456e-5,"MEAN_MOTION_DDOT":0},{"OBJECT_NAME":"STARLINK-33869","OBJECT_ID":"2025-091R","EPOCH":"2026-03-09T22:35:43.173888","MEAN_MOTION":15.27610281,"ECCENTRICITY":0.00015733,"INCLINATION":42.9958,"RA_OF_ASC_NODE":50.8469,"ARG_OF_PERICENTER":94.4288,"MEAN_ANOMALY":265.6744,"EPHEMERIS_TYPE":0,"CLASSIFICATION_TYPE":"U","NORAD_CAT_ID":63790,"ELEMENT_SET_NO":999,"REV_AT_EPOCH":4889,"BSTAR":0.00094604111,"MEAN_MOTION_DOT":0.00025887,"MEAN_MOTION_DDOT":0}]
